{"type": "FeatureCollection", "features": [ {"type": "Feature", "properties": {"norad_id": 34141, "name": "COSMOS 2251 DEB", "group": "cosmos-2251-debris", "lat": -64.59123060778693, "lon": -140.44240356525708, "alt_km": 766.6279100748407, "timestamp": "2025-12-26T19:22:39.303236+00:00", "meta": {"OBJECT_NAME": "COSMOS 2251 DEB", "OBJECT_ID": "1993-036LN", "EPOCH": "2025-12-26T10:31:39.408384", "MEAN_MOTION": 14.49377505, "ECCENTRICITY": 0.00465058, "INCLINATION": 74.0117, "RA_OF_ASC_NODE": 3.1237, "ARG_OF_PERICENTER": 84.4634, "MEAN_ANOMALY": 42.0983, "EPHEMERIS_TYPE": 0, "CLASSIFICATION_TYPE": "U", "NORAD_CAT_ID": 34141, "ELEMENT_SET_NO": 999, "REV_AT_EPOCH": 87892, "BSTAR": 0.0014498771, "MEAN_MOTION_DOT": 5.595e-05, "MEAN_MOTION_DDOT": 0}, "tle": {"line1": "1 34141U 93036LN  25360.43865056  .00005595  00000+0  14499-2 0  9999", "line2": "2 34141  74.0117   3.1237 0046505  84.4634  42.0983 14.49377505878925"}}, "geometry": {"type": "Point", "coordinates": [-140.44240356525708, -64.59123060778693]}}, {"type": "Feature", "properties": {"norad_id": 34270, "name": "COSMOS 2251 DEB", "group": "cosmos-2251-debris", "lat": -63.93911984731871, "lon": -116.37928977736402, "alt_km": 707.9120518824939, "timestamp": "2025-12-26T19:22:39.303246+00:00", "meta": {"OBJECT_NAME": "COSMOS 2251 DEB", "OBJECT_ID": "1993-036LQ", "EPOCH": "2025-12-26T11:30:00.928224", "MEAN_MOTION": 14.65262118, "ECCENTRICITY": 0.00481144, "INCLINATION": 74.0105, "RA_OF_ASC_NODE": 280.1491, "ARG_OF_PERICENTER": 68.803, "MEAN_ANOMALY": 291.8268, "EPHEMERIS_TYPE": 0, "CLASSIFICATION_TYPE": "U", "NORAD_CAT_ID": 34270, "ELEMENT_SET_NO": 999, "REV_AT_EPOCH": 89297, "BSTAR": 0.00047166261, "MEAN_MOTION_DOT": 2.555e-05, "MEAN_MOTION_DDOT": 0}, "tle": {"line1": "1 34270U 93036LQ  25360.47917741  .00002555  00000+0  47166-3 0  9996", "line2": "2 34270  74.0105 280.1491 0048114  68.8030 291.8268 14.65262118892970"}}, "geometry": {"type": "Point", "coordinates": [-116.37928977736402, -63.93911984731871]}}, {"type": "Feature", "properties": {"norad_id": 34271, "name": "COSMOS 2251 DEB", "group": "cosmos-2251-debris", "lat": 14.37201517012639, "lon": -12.221339888472775, "alt_km": 651.8192786969648, "timestamp": "2025-12-26T19:22:39.303256+00:00", "meta": {"OBJECT_NAME": "COSMOS 2251 DEB", "OBJECT_ID": "1993-036LR", "EPOCH": "2025-12-25T13:30:46.228320", "MEAN_MOTION": 14.7104633, "ECCENTRICITY": 0.0018087, "INCLINATION": 74.0201, "RA_OF_ASC_NODE": 174.4074, "ARG_OF_PERICENTER": 227.5372, "MEAN_ANOMALY": 190.3592, "EPHEMERIS_TYPE": 0, "CLASSIFICATION_TYPE": "U", "NORAD_CAT_ID": 34271, "ELEMENT_SET_NO": 999, "REV_AT_EPOCH": 88423, "BSTAR": 0.0023085, "MEAN_MOTION_DOT": 0.00014213, "MEAN_MOTION_DDOT": 0}, "tle": {"line1": "1 34271U 93036LR  25359.56303505  .00014213  00000+0  23085-2 0  9999", "line2": "2 34271  74.0201 174.4074 0018087 227.5372 190.3592 14.71046330884235"}}, "geometry": {"type": "Point", "coordinates": [-12.221339888472775, 14.37201517012639]}}, {"type": "Feature", "properties": {"norad_id": 34273, "name": "COSMOS 2251 DEB", "group": "cosmos-2251-debris", "lat": 54.199704762264204, "lon": 83.91280586652057, "alt_km": 689.1396554714629, "timestamp": "2025-12-26T19:22:39.303267+00:00", "meta": {"OBJECT_NAME": "COSMOS 2251 DEB", "OBJECT_ID": "1993-036LT", "EPOCH": "2025-12-26T12:50:56.279904", "MEAN_MOTION": 14.61344007, "ECCENTRICITY": 0.00132695, "INCLINATION": 74.0357, "RA_OF_ASC_NODE": 61.0479, "ARG_OF_PERICENTER": 186.2896, "MEAN_ANOMALY": 240.9182, "EPHEMERIS_TYPE": 0, "CLASSIFICATION_TYPE": "U", "NORAD_CAT_ID": 34273, "ELEMENT_SET_NO": 999, "REV_AT_EPOCH": 88823, "BSTAR": 0.00085763036, "MEAN_MOTION_DOT": 4.216e-05, "MEAN_MOTION_DDOT": 0}, "tle": {"line1": "1 34273U 93036LT  25360.53537361  .00004216  00000+0  85763-3 0  9993", "line2": "2 34273  74.0357  61.0479 0013269 186.2896 240.9182 14.61344007888230"}}, "geometry": {"type": "Point", "coordinates": [83.91280586652057, 54.199704762264204]}}, {"type": "Feature", "properties": {"norad_id": 34274, "name": "COSMOS 2251 DEB", "group": "cosmos-2251-debris", "lat": -37.31834522438887, "lon": 28.829738379877202, "alt_km": 693.0949342790609, "timestamp": "2025-12-26T19:22:39.303277+00:00", "meta": {"OBJECT_NAME": "COSMOS 2251 DEB", "OBJECT_ID": "1993-036LU", "EPOCH": "2025-12-26T09:49:41.736576", "MEAN_MOTION": 14.64932186, "ECCENTRICITY": 0.00211666, "INCLINATION": 74.0039, "RA_OF_ASC_NODE": 42.2274, "ARG_OF_PERICENTER": 190.8598, "MEAN_ANOMALY": 192.4467, "EPHEMERIS_TYPE": 0, "CLASSIFICATION_TYPE": "U", "NORAD_CAT_ID": 34274, "ELEMENT_SET_NO": 999, "REV_AT_EPOCH": 88876, "BSTAR": 0.0010045593, "MEAN_MOTION_DOT": 5.366e-05, "MEAN_MOTION_DDOT": 0}, "tle": {"line1": "1 34274U 93036LU  25360.40951084  .00005366  00000+0  10046-2 0  9990", "line2": "2 34274  74.0039  42.2274 0021166 190.8598 192.4467 14.64932186888766"}}, "geometry": {"type": "Point", "coordinates": [28.829738379877202, -37.31834522438887]}}, {"type": "Feature", "properties": {"norad_id": 34276, "name": "COSMOS 2251 DEB", "group": "cosmos-2251-debris", "lat": -51.624167385076774, "lon": -100.21726328095832, "alt_km": 695.019344244035, "timestamp": "2025-12-26T19:22:39.303287+00:00", "meta": {"OBJECT_NAME": "COSMOS 2251 DEB", "OBJECT_ID": "1993-036LW", "EPOCH": "2025-12-26T13:57:01.187136", "MEAN_MOTION": 14.57315229, "ECCENTRICITY": 0.00220146, "INCLINATION": 74.0234, "RA_OF_ASC_NODE": 59.0032, "ARG_OF_PERICENTER": 204.4532, "MEAN_ANOMALY": 284.0843, "EPHEMERIS_TYPE": 0, "CLASSIFICATION_TYPE": "U", "NORAD_CAT_ID": 34276, "ELEMENT_SET_NO": 999, "REV_AT_EPOCH": 88794, "BSTAR": 0.0006956697, "MEAN_MOTION_DOT": 3.131e-05, "MEAN_MOTION_DDOT": 0}, "tle": {"line1": "1 34276U 93036LW  25360.58126374  .00003131  00000+0  69567-3 0  9998", "line2": "2 34276  74.0234  59.0032 0022014 204.4532 284.0843 14.57315229887946"}}, "geometry": {"type": "Point", "coordinates": [-100.21726328095832, -51.624167385076774]}}, {"type": "Feature", "properties": {"norad_id": 34297, "name": "COSMOS 2251 DEB", "group": "cosmos-2251-debris", "lat": -70.01343286851778, "lon": -153.44928519933816, "alt_km": 767.1298492707992, "timestamp": "2025-12-26T19:22:39.303298+00:00", "meta": {"OBJECT_NAME": "COSMOS 2251 DEB", "OBJECT_ID": "1993-036MT", "EPOCH": "2025-12-26T10:15:55.053792", "MEAN_MOTION": 14.36640578, "ECCENTRICITY": 0.00177933, "INCLINATION": 74.0483, "RA_OF_ASC_NODE": 259.0982, "ARG_OF_PERICENTER": 325.3074, "MEAN_ANOMALY": 154.1728, "EPHEMERIS_TYPE": 0, "CLASSIFICATION_TYPE": "U", "NORAD_CAT_ID": 34297, "ELEMENT_SET_NO": 999, "REV_AT_EPOCH": 88261, "BSTAR": 0.00013276447, "MEAN_MOTION_DOT": 3.65e-06, "MEAN_MOTION_DDOT": 0}, "tle": {"line1": "1 34297U 93036MT  25360.42772053  .00000365  00000+0  13276-3 0  9997", "line2": "2 34297  74.0483 259.0982 0017793 325.3074 154.1728 14.36640578882616"}}, "geometry": {"type": "Point", "coordinates": [-153.44928519933816, -70.01343286851778]}}, {"type": "Feature", "properties": {"norad_id": 34301, "name": "COSMOS 2251 DEB", "group": "cosmos-2251-debris", "lat": 28.85938317551061, "lon": -50.36551646899182, "alt_km": 607.0394921649486, "timestamp": "2025-12-26T19:22:39.303308+00:00", "meta": {"OBJECT_NAME": "COSMOS 2251 DEB", "OBJECT_ID": "1993-036MX", "EPOCH": "2025-12-26T12:33:41.976864", "MEAN_MOTION": 14.85255875, "ECCENTRICITY": 0.00096777, "INCLINATION": 74.0061, "RA_OF_ASC_NODE": 139.2942, "ARG_OF_PERICENTER": 203.9823, "MEAN_ANOMALY": 227.9901, "EPHEMERIS_TYPE": 0, "CLASSIFICATION_TYPE": "U", "NORAD_CAT_ID": 34301, "ELEMENT_SET_NO": 999, "REV_AT_EPOCH": 88605, "BSTAR": 0.0032937175, "MEAN_MOTION_DOT": 0.00028381, "MEAN_MOTION_DDOT": 0}, "tle": {"line1": "1 34301U 93036MX  25360.52340251  .00028381  00000+0  32937-2 0  9997", "line2": "2 34301  74.0061 139.2942 0009677 203.9823 227.9901 14.85255875886054"}}, "geometry": {"type": "Point", "coordinates": [-50.36551646899182, 28.85938317551061]}}, {"type": "Feature", "properties": {"norad_id": 34302, "name": "COSMOS 2251 DEB", "group": "cosmos-2251-debris", "lat": 73.39185257063035, "lon": -154.09565791893158, "alt_km": 800.0438535895382, "timestamp": "2025-12-26T19:22:39.303319+00:00", "meta": {"OBJECT_NAME": "COSMOS 2251 DEB", "OBJECT_ID": "1993-036MY", "EPOCH": "2025-12-26T11:11:34.221984", "MEAN_MOTION": 14.39382029, "ECCENTRICITY": 0.00795544, "INCLINATION": 74.1784, "RA_OF_ASC_NODE": 98.4618, "ARG_OF_PERICENTER": 309.9121, "MEAN_ANOMALY": 178.2236, "EPHEMERIS_TYPE": 0, "CLASSIFICATION_TYPE": "U", "NORAD_CAT_ID": 34302, "ELEMENT_SET_NO": 999, "REV_AT_EPOCH": 87918, "BSTAR": 0.00063023504, "MEAN_MOTION_DOT": 2.008e-05, "MEAN_MOTION_DDOT": 0}, "tle": {"line1": "1 34302U 93036MY  25360.46636831  .00002008  00000+0  63024-3 0  9993", "line2": "2 34302  74.1784  98.4618 0079554 309.9121 178.2236 14.39382029879189"}}, "geometry": {"type": "Point", "coordinates": [-154.09565791893158, 73.39185257063035]}}, {"type": "Feature", "properties": {"norad_id": 34303, "name": "COSMOS 2251 DEB", "group": "cosmos-2251-debris", "lat": -34.429074316209984, "lon": -109.96723327141505, "alt_km": 685.7342879941962, "timestamp": "2025-12-26T19:22:39.303329+00:00", "meta": {"OBJECT_NAME": "COSMOS 2251 DEB", "OBJECT_ID": "1993-036MZ", "EPOCH": "2025-12-26T12:08:15.408096", "MEAN_MOTION": 14.5463915, "ECCENTRICITY": 0.01355823, "INCLINATION": 74.0044, "RA_OF_ASC_NODE": 261.9442, "ARG_OF_PERICENTER": 36.8534, "MEAN_ANOMALY": 149.6028, "EPHEMERIS_TYPE": 0, "CLASSIFICATION_TYPE": "U", "NORAD_CAT_ID": 34303, "ELEMENT_SET_NO": 999, "REV_AT_EPOCH": 88162, "BSTAR": 0.0015077295, "MEAN_MOTION_DOT": 7.264e-05, "MEAN_MOTION_DDOT": 0}, "tle": {"line1": "1 34303U 93036MZ  25360.50573389  .00007264  00000+0  15077-2 0  9990", "line2": "2 34303  74.0044 261.9442 0135582  36.8534 149.6028 14.54639150881628"}}, "geometry": {"type": "Point", "coordinates": [-109.96723327141505, -34.429074316209984]}}]}